Region,Country,Location,Course,i100,Architect,Construction,TypeOfJob,Status,History,DataCurated,Latitude,Longitude,Website,YouTube,Instagram,InstaCaption,BackTee,Budget,Acres,Comments,YouTubeCaption,Twitter,TwitterCaption,Bob,ArchitectURL
Africa,Morocco,Fes,Michlifen,,Nicklaus Design,,New,Open,,2020-06-28,33.5350795,-5.1099822,https://www.michlifen.com/en/golf-morocco.html,S1hWmYWGBT0,michlifenresort,michlifenresort,,,,IMG Managed,Atlas Mountains,GOLFTV/status/1259031602211852291,Nicklaus,,
Africa,Morocco,Saïdia,Saïdia Teelal,,Joakamides,,New,Open,,2020-12-14,35.0917325,-2.2749505,,,,,,,,,,,,,
Africa,South Africa,Johannesburg,Whistling Thorns,Short,De Abreu,,New,Open,,2020-07-01,-26.0418216,28.2600146,https://serengeti-estates.co.za/whistling/,HOAVxEYSsKc,serengetiestates,serengetiestates,,,,Par 3 Course,18 Par 3's,,,,
Asia,Cambodia,Phnom Penh,Vattanac-East,,Nick Faldo,,New,Open,,2020-09-22,11.4688376,105.0167496,https://www.vattanacgolfresort.com/,Z6zdXBNqh48,vattanac.golf.resort,vattanac.golf.resort,,,,,Flyover,thegolfbusiness/status/1171362455781433345,Golf Construction,,
Asia,Indonesia,Bandung,Parahyangan,,Moore,,New,Open,,2020-10-14,-6.8785227,107.4393988,https://parahyangangolf.com/,_7CgCAc1mMg,parahyangangolf,parahyangangolf,,,,JMP,Kota Baru,TMoguraya/status/1297504601873068034,@TMoguraya,,
Asia,Indonesia,Belitung,Black Rocks,,Ron Fream,,New,Open,,2021-02-09,-2.5654205,107.7049837,https://blackrocksgolf.co.id/,,blackrocksgolf,blackrocksgolf,7255,,,,,,,,
Asia,Japan,Hyogo,Hirono,100,Martin Ebert,,Restoration,Open,C.H. Allison,2020-09-22,34.770391,135.021666,https://www.google.com/search?q=Hirono+golf,8rmFbIVmjhk,,,,,,,ProVisualizer,BradleySKlein/status/1156635803109531648,Brad Klein Walk,,
Asia,Laos,Xieng Khouang,Phoukoud Thongkham,,,,New,Open,,2023-09-23,19.4513907,103.0427633,https://www.facebook.com/p/Phoukoud-Thongkham-Golfcourse-and-Resort-100063582759030/,Nh-VaFhAteM,,,,,,Golf resort,STO Lao Development,,,,
Asia,Malaysia,Johor,Forest City Classic,,Guo Kun,,New,Open,,2020-09-22,1.411618,103.5481709,https://fcgolfresort.com/forest-city-golf-resort-desert-golf-in-malaysias-johor-bahru/,Z7yGsb75JA8,forestcityindonesia,forestcityindonesia,,,,,Legacy,NicklausCo/status/1005131885469630466,Quinn,,
Asia,Sri Lanka,Kandy,Victoria,,Sam Sakocius,,Renovation,Open,Donald Steel Martin Ebert,2024-01-17,7.2777622,80.7560396,https://www.golfsrilanka.com/,,,,,$1.2M,,Mark Bostock Tony Whitham,,troonint/status/1113334259593256960,Troon International,,
Asia,Thailand,Chonburi,Siam Rolling Hills,,Curley,,New,Open,,2020-09-22,12.9062081,100.9879469,https://siamcountryclub.com/rolling-hills/,kYXKeHhU74w,siamcountryclub,siamcountryclub,,,,,Historical,joshuaGuo5/status/1306480299702796288,Pics,,
Asia,Thailand,Udon Thani,Royal Creek,,,,New,Open,,2020-10-26,17.464561,102.96408,https://www.facebook.com/royalcreekgolf/,,,,,,,,,,,,
Asia,Vietnam,Cam Ranh,KN Golf Links,,Greg Norman,,New,Open,,2020-05-02,11.9719423,109.2439145,https://www.kngolflinks.com,Hq6AiZ7XLKc,kngolflinks,kngolflinks,,,,,Links Golf,simees/status/1294456386730909697,Hole 15,,
Asia,Vietnam,Dong Hoi,FLC Quang Binh Ocean Dunes,,Brian Curley,,New,Open,,2020-09-22,17.3583935,106.7389672,https://flc-quang-binh-beach-golf-resort-golf-course.business.site/,2tg3W8nRHYk,flc_golfcourse,flc_golfcourse,,,,,Dunes Golf,,,,
Asia,Vietnam,Hanoi,BRG Kings Island,,Jack Nicklaus II,,New,Open,,2020-09-22,21.0612822,105.4742274,http://brgkingsislandgolf.vn/,6wuWAwPcKuM,,,,,,,Championship Golf,,,,https://www.instagram.com/p/CIS58P_F0dP/
AU/NZ,NZ,South Island,The Hills (The Farm) ,,Oliver,,New,Open,,2020-05-14,-44.9542279,168.8368992,https://www.planetgolf.com/news/designed-by-darius-oliver-the-farm-officially-opens-for-play,,thehillsgolfclub,thehillsgolfclub,,,,9 holes,,,,,
Europe,Czech Republic,Prague,Twin Chapels,,Jonathan Gaunt,,New,Open,,2020-05-02,50.1445572,14.4286119,https://twinchapels.cz/en/,VjQdJjSFZpQ,,,,,,,Shaping,,,,
GB&I,England,Norfolk,Royal Norwich ,,Eur Golf Design (McMurray),,New,Open,,2020-05-02,52.7158096,1.1147599,https://www.royalnorwichgolf.co.uk/,wEXBUBLlF3o,royalnorwichgolf,royalnorwichgolf,,,,,Hole 18,,,,
GB&I,England,Stafford,JCB Golf CC,,Robin Hiseman,,New,Open,,2020-05-02,52.9460575,-1.8604687,https://www.jcbgolfandcountryclub.com/,eUDSGhOq4yI,jcbgolfcc,jcbgolfcc,,,,,Best Modern,,,,https://golfdesignindia.com/portfolio-item/godrej-golf-links-uttar-pradesh/
GB&I,Scotland,Inverness,Kings GC,,Rennie,,New,Open,,2020-12-11,57.4644912,-4.2523992,https://www.kingsgolfclubinverness.co.uk/,8L0VE0SceqE,,,,,,,Flyover,,,,
L America,Mexico,Baja,Costas Palmas,,RTJ II,,New,Open,,2020-09-22,23.610738,-109.5920616,https://costapalmas.com/,qmoyWMl4Dm0,costapalmas,costapalmas,,,,,Beach Resort Golf,RTJ2GolfDesign/status/1305967182115942400,Hole 9,,
N America,USA,Georgia,Old Toccoa Farm,,Axland Dredla,,New,Open,,2020-06-30,34.9223098,-84.3309474,https://www.oldtoccoafarm.com/,ly26cyWLCn4,oldtoccoafarm,oldtoccoafarm,,,,New 9,Flyover,DawsonTigerGolf/status/854098967818272768,Hole 7,,
N America,USA,Kentucky,Sink Hole,Short,Lemons,,New,Open,,2020-12-09,36.9079876,-86.386972,https://www.olde-stone.com/Golf_(1)/The_Sink_Hole,,,,,,,Olde Stone,,,,,
N America,USA,Missouri,Ozarks National ,,Coore Crenshaw ,,New,Open,,2020-05-13,36.5612078,-93.1990332,https://bigcedar.com/golf/ozarks-national-course/,DBZCGjNNvg0,bigcedarlodge,bigcedarlodge,,,,,Golf in Midwest,,,,
N America,USA,South Carolina,Reserve Hollow Creek,,Johnston Zoeller,,New,Open,Johnston Zoeller ,2020-05-02,33.4892384,-81.7438575,https://www.thereserveclubatwoodside.com/golf,xYta3-YmzjI,,,,,,,Construction,,,,
N America,USA,Tennessee,Troubadour,,Tom Fazio,,New,Open,,2020-09-22,35.8287884,-86.6813668,https://thetroubadourclub.com,,,,,,,Discovery Land,,camrice21/status/1279525008239443969,Strategic Golf,,
N America,USA,Texas,Wildhorse GC,,Stephenson,,New,Open,,2020-09-22,33.1388963,-97.2442944,https://www.robsonranchgolfclub.com/,,wildhorsegolfrr,wildhorsegolfrr,,,,New 9,,,,,
N America,USA,Nevada,Wynn GC ,,Tom Fazio ,,Rebuild ,Open,,2020-05-02,36.1270596,-115.1684821,,,wynnproshop,wynnproshop,,,,,,,,,
N America,USA,Georgia,McLemore ,,Rees Jones Bill Bergin,,Rebuild ,Open ,,2020-09-22,34.7414494,-85.7267743,https://www.themclemore.com/,7QGvnDz1e0k,The_McLemore,The_McLemore,,,,Formerly Canyon Ridge,30 seconds,bshawnick/status/1290024725767311360,Georgia Mountains,,
Africa,Morocco,El Jadida,El Jadida,,James Duncan,,Renovation,Open,Cabell Robinson,2020-05-02,33.2447243,-8.4950871,http://golf-eljadida.com/,5MFVZb25578,,,,,,,Royal Golf,,,,
Asia,Thailand,Chonburi,Laem Chabang,,Nicklaus Quinn,,Renovation,Open,,2020-06-29,13.0287986,101.0377657,https://www.laemchabanggolf.com/,YmpwkYvyUZA,laemchabanggolf,laemchabanggolf,,,,,Regrassing,,,,
AU/NZ,Australia,Victoria,National Gunnamatta,,Tom Doak,,Renovation,Open,Thompson Wolveridge,2020-09-22,-38.4604737,144.8805392,https://www.nationalgolf.com.au/cms/,Fjw-BD0V1Pk,,,,,,Formerly Ocean Course,Caddie Productions,ssonick/status/1125905185144836096,Hole 16,,
AU/NZ,Australia,Victoria,Peninsula Kingswood N,,OCCM,,Renovation,Open,Morpeth,2020-09-22,-38.1316545,145.1573601,https://www.peninsulakingswood.com.au/cms/,0F0FVZY9KfA,peninsulakingswood,peninsulakingswood,,,,South Opened 2017-8,Sandy Loam soil,GreatGolfHoles/status/1273397152333488128,Hole 17,,
Europe,Spain,Mallorca,Alcanada,,RTJ II,,Renovation,Open,RTJ II,2020-09-22,39.84066,3.1664346,https://www.golf-alcanada.com/en/,LwthHjL2HBA,golfalcanada,golfalcanada,,$1M,,,Pre Renovation,,,,
Europe,Sweden,Stockholm,Österåker Golfklubb,,Lundin Stenson,,Renovation,Ongoing,,2020-10-02,59.4913577,18.2518906,https://www.ostgk.se/,QrNUweDtO64,,,,,,,nya superbana,,,,
GB&I,England,Kent,Princes Dunes/Shore,,Mackenzie Ebert,,Renovation,Construction,Campbell Morrison,2020-05-02,51.2956354,1.3686571,https://www.princesgolfclub.co.uk/,pAL09ayzfkE,princesgolfclub,princesgolfclub,,,,Dunes 9 & Shore 9,Weekend Golf,,,,
GB&I,England,Kent,Princes Himalayas,Short,Mackenzie Ebert,,Renovation,Open,Campbell Morrison,2020-05-02,51.2956354,1.3686571,https://www.princesgolfclub.co.uk/,,princesgolfclub,princesgolfclub,,,,Himalayas 9,,RobGolfBeer/status/1308661268321128448,New 9 Holes,,
GB&I,England,Kent,Royal Cinque Ports,100,Mackenzie Ebert,,Renovation,Open,Braid Campbell,2020-09-22,51.2395102,1.3942074,https://www.royalcinqueports.com/royal_association,TSEP46Pdk_E,rcpgolfclub,rcpgolfclub,,,,,Spring 2020,,,,
GB&I,England,Lincolnshire,Woodhall Spa,100,Tom Doak,,Renovation,Open,Vardon Colt Hotchkin,2020-05-02,53.1555127,-0.2077424,https://www.woodhallspagolf.com/hotchkin_course,zE4lfHKuNfg,woodhallspagolfshop,woodhallspagolfshop,,,,,Hole 17,,,,
GB&I,England,Southport,Southport Ainsdale,,Marc Westenborg,,Renovation,Open,,2023-08-02,53.6054391,-3.037017,https://www.sandagolfclub.co.uk/,,,,,,,,,SandAGolfClub/status/1267092844168253440,Redesigned 1st hole,,
GB&I,Ireland,Dublin,The Island,100,Mackenzie Ebert,,Renovation,Open,F Hawtree Hackett,2020-09-23,53.4634539,-6.1360027,https://www.theislandgolfclub.ie/,kS3l6kXaRFk,theislandgolfclub,theislandgolfclub,,,,,New Tees,kevinmarkham/status/1292030536555298816,New Par 3 Hole,,
L America,Mexico,Cabo,Cabo del Sol Cove,100,Nicklaus Design,,Renovation,Open,JWN,2020-05-07,22.9152794,-109.8441904,https://www.cabodelsol.com/,,cabodelsolgolfclub,cabodelsolgolfclub,,,,Ocean Course,,,,,
N America,Canada,Alberta,Crowsnest,,Browning,,Renovation,Open,,2021-01-08,,,,,,,,,,,,,,,
N America,USA,Alabama,CC Birmingham East,,LaFoy,,Renovation,Open ,Ross Cobb LaFoy,2020-05-02,33.4961874,-86.7693896,,,countryclubofbirmingham,countryclubofbirmingham,,,,,,,,,
N America,USA,Arizona,Desert Highlands ,,Nicklaus Design,,Renovation,Open ,JWN,2020-05-02,33.7161229,-111.8689393,https://www.deserthighlandsscottsdale.com/,sVboBNh5yIQ,,,,,,,Regrassing,,,,
N America,USA,California,Barona Creek ,,Todd Eckenrode,,Renovation,Open ,,2020-07-16,32.9397337,-116.8760359,https://www.barona.com/resort/golf/,eXweFdhODdk,,,,,,Phase I,2010,gcamagazine/status/1159811723228041218,Par 3,,
N America,USA,California,Dairy Creek,,Andy Staples,,Renovation,Open ,,2021-12-13,,,,,,,,,,,,,,,
N America,USA,California,Hillcrest CC,,Kyle Phillips,m6 Consulting,Renovation,Open,William Watson,2020-05-02,34.049096,-118.406087,https://www.hcc-la.com/,,,,,,,,,,,,
N America,USA,California,La Jolla CC ,, Eckenrode ,Casa Verde,Renovation,Open,William F. Bell,2020-11-06,32.8379052,-117.2712377,https://www.lajollacountryclub.com/,,lajollacountryclub,lajollacountryclub,,,,,,,,,
N America,USA,California,Valley Club of Montecito ,100, Tom Doak ,,Renovation,Open ,Mackenzie,2020-05-02,34.4330977,-119.6174428,,,valleyclubofmontecito,valleyclubofmontecito,,,,flood damage,,,,,
N America,USA,California,Yorba Linda CC ,, OCallaghan ,,Renovation,Open ,Rainville ,2020-05-02,33.8771114,-117.7969457,,,,,,,,,,,,,
N America,USA,Florida,Bonita Bay (May Island) ,,Forrest Smith ,,Renovation,Open ,Arthur Hills,2020-05-02,26.3522052,-81.8158415,,BiBCXiHlgZg,,,,,,, April 2020,,,,
N America,USA,Florida,Countryside,,Kipp Schulties,,Renovation,Open,Arthur Hills,2020-05-02,26.141877,-81.724395,https://www.countrysidegcc.net/,3oZv63BlrcI,,,,$5.5M,,,Before/After,,,,
N America,USA,Florida,Fort Lauderdale (N) ,,Kipp Schulties ,,Renovation,Open ,Lawrence ,2020-05-02,26.1150648,-80.2100687,,,,,,,,,,,,,
N America,USA,Florida,Jacksonville G&CC,,Clyde Johnston,MacCurrach,Renovation,Open ,Clyde Johnston,2020-01-02,30.273348,-81.4685579,https://www.golfcourseindustry.com/news/jacksonville-florida-golf-redesign/,SKyWdmt-36Q,,,,,,,Golf Construction,,,,
N America,USA,Florida,Pelican GC,,Beau Welling,,Renovation,Open,Beau Welling,2020-07-07,27.930608,-82.8102102,https://www.pelicangolfclub.com/,,,,,,,,,,,,
N America,USA,Georgia,Chimney Oaks,,McCumber,,Renovation,Open,,2020-07-07,34.3538538,-83.4867314,https://www.chimneyoaksgolfclub.com/,VxtI_2vaXC8,,,,,,,Greens aerification,,,,
N America,USA,Georgia,Great Waters Reynolds,,Nicklaus Goetz,,Renovation,Open,,2020-07-01,33.4862849,-83.3678448,https://www.reynoldslakeoconee.com/?utm_source=press%20release&utm_medium=pr&utm_campaign=Great%20Waters%20Reopen,OmyBwWaPNLM,reynoldslakeoconee,reynoldslakeoconee,,,,,1992->2020,,,,
N America,USA,Georgia,Sea Island (Plantation) ,,Davis Love,,Renovation,Open ,,2020-05-02,31.1390433,-81.4080239,,p5V7jT7eWNk,,,,,,includes Travis 9 ,Golf Channel,,,,
N America,USA,Georgia,TPC Sugarloaf ,,Greg Norman,,Renovation,Open ,Norman ,2020-05-02,33.9978944,-84.1111473,,,,,,,,Greens bunkers irrigation,,,,,
N America,USA,Illinois,St Charles CC,,Benkusky,,Restoration,Open,,2020-05-14,41.9411948,-88.304067,https://www.stcharlescc.com,,,,,,,Refresh bunkers,,,,,
N America,USA,Illinois,White Eagle,,Todd Quitno,,Renovation,Open,,2020-10-10,41.7226231,-88.2180047,http://www.whiteeaglegc.com/,Ux2lIG3LnrI,,,,,,,Flyover,,,,
N America,USA,Louisiana,TPC Louisiana,,,,Renovation,Open,Gibson Gray Dye,2020-09-24,29.9023741,-90.1914283,https://tpc.com/louisiana/,e-yFVsJvcMo,,,,,,,Drone coverage,,,,
N America,USA,Maryland,Burning Tree,,Gil Hanse,,Renovation,Open,,2020-07-05,38.9998977,-77.1521431,https://issuu.com/totalturfgolfservices/docs/burning_tree_club_as_built_-_11_x_17,,,,,,,,,,,,
N America,USA,Massachusetts,Longmeadow,,,,Renovation,Open,,2022-12-31,42.0403789,-72.5726482,https://www.masslive.com/golf/2018/04/new-look_longmeadow_country_club_to_retain_old-school_feel.html,,,,,$4M,,Bradley Klein,,,,,
N America,USA,Minnesota,Braemar,,Richard Mandell,,Renovation,Open,,2020-06-27,44.867092,-93.3851268,https://www.edinamn.gov/202/Championship-18,8J5INcbvt7k,,,,,,,Bunkers,,,,https://www.facebook.com/nicklauscompanies/photos/pcb.3380587638675761/3380587575342434/
N America,USA,Minnesota,Timber Creek,,Kari Haug,,Renovation,Open,,2021-12-31,44.9528732,-93.774311,https://www.timbercreekgolfmn.com/,,,,,,,,,,,,
N America,USA,New Jersey,Manasquan River GC,,Andrew Green,LaBar,Restoration,Open,Robert White,2024-02-02,40.8607515,-74.2908959,https://www.mrgc.com/,,,,,,,,,ToddS76/status/1122065892370800640,Waterfront,,
N America,USA,New Jersey,Mountain Ridge ,,Ron Prichard,,Restoration,Open,Donald Ross ,2020-05-02,40.8607515,-74.2908959,https://www.mountainridgecc.org/,Avk6nGIxSgs,,,,,,,GM,,,,
N America,USA,New York,Saratoga Golf & Polo,Short,Goalby Normoyle,,Renovation,Open,,2020-05-02,43.0857287,-73.8026455,https://www.saratogagolfpoloclub.org/,,,,,,,,,,,,
N America,USA,North Carolina,Cape Fear CC,,Andrew Green,,Renovation,Open,Donald Ross ,2020-07-16,34.220117,-77.9200077,https://www.capefearcountryclub.net/,,capefearcountryclub,capefearcountryclub,,$5M,,,,GreenGCA/status/1282473631495397376,Hole 18,,
N America,USA,North Carolina,GlenCove Saddle,,Beau Welling,Landscapes Unlimited,Renovation,Open,,2020-12-31,35.1234518,-83.1171815,https://www.golfcourseindustry.com/article/saddle-glencove-short-course-jerry-west/,,,,,,,Joe Titzer,,,,,
N America,USA,Oklahoma,Southern Hills,100,Gil Hanse,Cavemen,Renovation,Open ,Perry Maxwell,2020-09-22,36.0700901,-95.9454585,https://www.southernhillscc.com/,TiCRWD0c_a8,,,,$11M,,,Russ Myers,the_fried_egg/status/1239254703604666375,Bermuda Grass,,
N America,USA,Oregon,Laurelwood,,Dan Hixson,,Renovation,Open ,,2023-09-13,44.0299287,-123.0705007,https://thefriedegg.com/laurelwood-golf-course-coronavirus-covid-19/,,,,,$0.14M,,,,Ltowngolf/status/1701792606949450093,Fried Egg,,
N America,USA,Pennsylvania,Country Club of York,,Andrew Green,,Restoration,Masterplan,Donald Ross ,2023-12-31,39.9276045,-76.7479461,https://ccyork.org,,,,,,,,,greengca/status/597361226914607105,Flynn Routing,,
N America,USA,Pennsylvania,Merion East,100,Gil Hanse ,,Restoration,Open ,Hugh Wilson,2020-05-02,40.0018685,-75.3139925,,,,,,,,,,,,,
N America,USA,Texas,Barton Creek Coore Crenshaw,,Bill Coore Ben Crenshaw,,Renovation,Open ,,2020-09-22,30.2706997,-97.8778696,https://golfincmagazine.com/content/omni-barton-creek-resort-set-reopen-after-18-month-150-million-renovation/,,,,,$6M,,Omni Hotels,,,,,
N America,USA,Texas,Barton Creek Foothills,,Tom Fazio,,Renovation,Open ,Tom Fazio Beau Welling  Roy Bechtol Dennis Wise,2020-09-22,30.2706997,-97.8778696,https://golfincmagazine.com/content/omni-barton-creek-resort-set-reopen-after-18-month-150-million-renovation/,,,,,$6M,,Omni Hotels,,,,,
N America,USA,Texas,Memorial Park ,,Tom Doak Brooks Koepka,,Renovation,Open,John Bredemus ,2020-09-22,29.7699901,-95.4393084,https://www.houstonmunigolf.com/,I0E6S3EaNHw,,,,,,$34M Mike Nuzzo,PGA Tour,HouOpenGolf/status/1252974411625435137,Less Bunkers,,
N America,USA,Virginia,Washington G&CC ,,Tom Doak Eric Iverson,,Renovation,Open,Ross Flynn ,2020-05-02,38.9075733,-77.1324319,https://www.washingtongolfcc.org/Golf,wXpe6zY-2yQ,,,,,,,April 2019,,,,
